NORAD_CAT_ID,OBJECT_NAME,OBJECT_TYPE,EPOCH,MEAN_MOTION,ECCENTRICITY,INCLINATION,RA_OF_ASC_NODE,ARG_OF_PERICENTER,MEAN_ANOMALY,BSTAR,MEAN_MOTION_DOT,MEAN_MOTION_DDOT,TLE_LINE0,TLE_LINE1,TLE_LINE2,SEMIMAJOR_AXIS,PERIOD,APOGEE,PERIGEE,DECAYED
54765.0,STARLINK-5466,PAYLOAD,2023-01-31 08:00:01,15.11140452,0.0001544,53.2151,92.0704,84.5658,109.7546,-0.078444,-0.01218388,0.0,0 STARLINK-5466,1 54765U 22175H   23031.33334491 -.01218388  00000-0 -78444-1 0  9994,2 54765  53.2151  92.0704 0001544  84.5658 109.7546 15.11140452  6673,6910.858,95.292,533.79,531.656,0.0
54765.0,STARLINK-5466,PAYLOAD,2023-01-31 14:00:01,15.10472302,0.000151,53.2153,90.9456,74.5988,40.1953,-0.076037,-0.01163888,0.0,0 STARLINK-5466,1 54765U 22175H   23031.58334491 -.01163888  00000-0 -76037-1 0  9991,2 54765  53.2153  90.9456 0001510  74.5988  40.1953 15.10472302  1300,6912.896,95.334,535.804,533.717,0.0
54765.0,STARLINK-5466,PAYLOAD,2023-01-31 22:00:00,15.09489994,0.0001401,53.2156,89.4448,91.5049,36.3762,-0.055544,-0.00838228,0.0,0 STARLINK-5466,1 54765U 22175H   23031.91667824 -.00838228  00000-0 -55544-1 0  9993,2 54765  53.2156  89.4448 0001401  91.5049  36.3762 15.09489994  1301,6915.894,95.396,538.728,536.79,0.0
54765.0,STARLINK-5466,PAYLOAD,2023-02-01 06:00:00,15.08855103,0.0001499,53.2157,87.9477,96.609,43.2692,-0.0017094,-0.00027401,0.0,0 STARLINK-5466,1 54765U 22175H   23032.25001157 -.00027401  00000-0 -17094-2 0  9994,2 54765  53.2157  87.9477 0001499  96.6090  43.2692 15.08855103  6814,6917.834,95.437,540.736,538.662,0.0
54765.0,STARLINK-5466,PAYLOAD,2023-02-01 14:00:01,15.08802106,0.0001485,53.2157,86.4528,81.9477,69.5377,0.0027563,0.00043806,0.0,0 STARLINK-5466,1 54765U 22175H   23032.58334491  .00043806  00000-0  27563-2 0  9997,2 54765  53.2157  86.4528 0001485  81.9477  69.5377 15.08802106  1301,6917.996,95.44,540.889,538.834,0.0
54765.0,STARLINK-5466,PAYLOAD,2023-02-02 06:00:00,15.08868161,0.000153,53.2161,83.4588,91.1317,83.4983,-0.0023592,-0.00037668,0.0,0 STARLINK-5466,1 54765U 22175H   23033.25001157 -.00037668  00000-0 -23592-2 0  9991,2 54765  53.2161  83.4588 0001530  91.1317  83.4983 15.08868161  6964,6917.794,95.436,540.718,538.601,0.0
54765.0,STARLINK-5466,PAYLOAD,2023-02-02 14:00:01,15.0880726,0.0001489,53.2159,81.9637,85.8029,100.4537,0.0028904,0.00045972,0.0,0 STARLINK-5466,1 54765U 22175H   23033.58334491  .00045972  00000-0  28904-2 0  9994,2 54765  53.2159  81.9637 0001489  85.8029 100.4537 15.08807260  1303,6917.98,95.44,540.876,538.815,0.0
54765.0,STARLINK-5466,PAYLOAD,2023-02-03 08:00:01,15.08872282,0.0001508,53.2159,78.5962,96.2093,206.1022,-0.0040407,-0.0006408,0.0,0 STARLINK-5466,1 54765U 22175H   23034.33334491 -.00064080  00000-0 -40407-2 0  9993,2 54765  53.2159  78.5962 0001508  96.2093 206.1022 15.08872282  7120,6917.782,95.436,540.69,538.604,0.0
54765.0,STARLINK-5466,PAYLOAD,2023-02-03 14:00:01,15.0880854,0.0001469,53.2158,77.4745,93.8796,127.1522,0.0026025,0.00041338,0.0,0 STARLINK-5466,1 54765U 22175H   23034.58334491  .00041338  00000-0  26025-2 0  9999,2 54765  53.2158  77.4745 0001469  93.8796 127.1522 15.08808540  1302,6917.977,95.44,540.858,538.825,0.0
54765.0,STARLINK-5466,PAYLOAD,2023-02-03 22:00:00,15.08813262,0.0001475,53.2157,75.9763,105.3224,127.2896,0.0026067,0.00041411,0.0,0 STARLINK-5466,1 54765U 22175H   23034.91667824  .00041411  00000-0  26067-2 0  9993,2 54765  53.2157  75.9763 0001475 105.3224 127.2896 15.08813262  7214,6917.962,95.439,540.848,538.807,0.0
54765.0,STARLINK-5466,PAYLOAD,2023-02-04 00:00:00,15.08807935,0.0001509,53.2156,75.6021,106.8709,218.6382,0.0039362,0.0006286,0.0,0 STARLINK-5466,1 54765U 22175H   23035.00001157  .00062860  00000-0  39362-2 0  9998,2 54765  53.2156  75.6021 0001509 106.8709 218.6382 15.08807935  1308,6917.978,95.44,540.887,538.799,0.0
54765.0,STARLINK-5466,PAYLOAD,2023-02-04 09:41:29,15.08846069,0.0002134,53.2178,73.7897,113.4677,246.654,-1.0693e-05,-4.58e-06,0.0,0 STARLINK-5466,1 54765U 22175H   23035.40381771 -.00000458  00000-0 -10693-4 0  9990,2 54765  53.2178  73.7897 0002134 113.4677 246.6540 15.08846069  9435,6917.862,95.437,541.203,538.251,0.0
54765.0,STARLINK-5466,PAYLOAD,2023-02-04 19:13:48,15.08848671,0.000188,53.2177,72.006,123.7425,236.3746,-0.00010298,-1.927e-05,0.0,0 STARLINK-5466,1 54765U 22175H   23035.80125715 -.00001927  00000-0 -10298-3 0  9990,2 54765  53.2177  72.0060 0001880 123.7425 236.3746 15.08848671  7343,6917.854,95.437,541.019,538.418,0.0
54765.0,STARLINK-5466,PAYLOAD,2023-02-05 01:35:22,15.08809996,0.0001799,53.2182,70.8174,98.2778,261.8418,0.00038337,5.814e-05,0.0,0 STARLINK-5466,1 54765U 22175H   23036.06622750  .00005814  00000-0  38337-3 0  9991,2 54765  53.2182  70.8174 0001799  98.2778 261.8418 15.08809996  7387,6917.972,95.439,541.082,538.593,0.0
54765.0,STARLINK-5466,PAYLOAD,2023-02-05 09:32:17,15.08833111,0.0001728,53.2181,69.3299,94.7295,265.3894,1.2077e-05,-9.6e-07,0.0,0 STARLINK-5466,1 54765U 22175H   23036.39742893 -.00000096  00000-0  12077-4 0  9990,2 54765  53.2181  69.3299 0001728  94.7295 265.3894 15.08833111  7433,6917.901,95.438,540.962,538.571,0.0
54765.0,STARLINK-5466,PAYLOAD,2023-02-05 19:04:36,15.08839203,0.0001746,53.218,67.5455,89.0174,271.1018,3.6011e-05,2.85e-06,0.0,0 STARLINK-5466,1 54765U 22175H   23036.79486563  .00000285  00000-0  36011-4 0  9996,2 54765  53.2180  67.5455 0001746  89.0174 271.1018 15.08839203  9645,6917.883,95.438,540.956,538.54,0.0
54765.0,STARLINK-5466,PAYLOAD,2023-02-06 06:12:18,15.08844388,0.0001699,53.2182,65.4637,89.4881,270.6306,6.614e-05,7.65e-06,0.0,0 STARLINK-5466,1 54765U 22175H   23037.25854207  .00000765  00000-0  66140-4 0  9991,2 54765  53.2182  65.4637 0001699  89.4881 270.6306 15.08844388  7565,6917.867,95.437,540.907,538.557,0.0
54765.0,STARLINK-5466,PAYLOAD,2023-02-06 10:58:27,15.08847812,0.0001695,53.2182,64.5714,96.9138,263.2047,0.00011458,1.536e-05,0.0,0 STARLINK-5466,1 54765U 22175H   23037.45725774  .00001536  00000-0  11458-3 0  9997,2 54765  53.2182  64.5714 0001695  96.9138 263.2047 15.08847812  9742,6917.857,95.437,540.894,538.549,0.0
54765.0,STARLINK-5466,PAYLOAD,2023-02-06 18:55:23,15.08839918,0.000174,53.2179,63.0833,85.4103,274.7087,4.6124e-05,4.46e-06,0.0,0 STARLINK-5466,1 54765U 22175H   23037.78846492  .00000446  00000-0  46124-4 0  9992,2 54765  53.2179  63.0833 0001740  85.4103 274.7087 15.08839918  9794,6917.881,95.438,540.949,538.542,0.0
54765.0,STARLINK-5466,PAYLOAD,2023-02-07 07:38:28,15.0884287,0.0001603,53.2173,60.7059,81.9067,278.2107,0.00013618,1.88e-05,0.0,0 STARLINK-5466,1 54765U 22175H   23038.31838085  .00001880  00000-0  13618-3 0  9995,2 54765  53.2173  60.7059 0001603  81.9067 278.2107 15.08842870  7724,6917.872,95.437,540.846,538.628,0.0
54765.0,STARLINK-5466,PAYLOAD,2023-02-08 07:29:14,15.08847446,0.0001554,53.2175,56.2451,82.1544,277.9624,3.8681e-05,3.28e-06,0.0,0 STARLINK-5466,1 54765U 22175H   23039.31197898  .00000328  00000-0  38681-4 0  9990,2 54765  53.2175  56.2451 0001554  82.1544 277.9624 15.08847446 10021,6917.858,95.437,540.798,538.648,0.0
54765.0,STARLINK-5466,PAYLOAD,2023-02-09 07:20:02,15.08838046,0.0001644,53.2184,51.7855,92.2893,267.8287,-1.4463e-05,-5.18e-06,0.0,0 STARLINK-5466,1 54765U 22175H   23040.30558584 -.00000518  00000-0 -14463-4 0  9999,2 54765  53.2184  51.7855 0001644  92.2893 267.8287 15.08838046  8024,6917.886,95.438,540.889,538.614,0.0
54765.0,STARLINK-5466,PAYLOAD,2023-02-10 00:49:17,15.08835469,0.0001868,53.2188,48.5133,109.9408,250.1786,-7.0917e-06,-4.01e-06,0.0,0 STARLINK-5466,1 54765U 22175H   23041.03422858 -.00000401  00000-0 -70917-5 0  9992,2 54765  53.2188  48.5133 0001868 109.9408 250.1786 15.08835469 10283,6917.894,95.438,541.052,538.467,0.0
54765.0,STARLINK-5466,PAYLOAD,2023-02-10 07:10:49,15.08842579,0.000154,53.2179,47.324,104.4841,255.6322,6.237e-05,7.05e-06,0.0,0 STARLINK-5466,1 54765U 22175H   23041.29918253  .00000705  00000-0  62370-4 0  9997,2 54765  53.2179  47.3240 0001540 104.4841 255.6322 15.08842579 10328,6917.873,95.437,540.803,538.672,0.0
54765.0,STARLINK-5466,PAYLOAD,2023-02-11 05:26:13,15.08841134,0.0001603,53.2176,43.1576,115.8608,244.2549,0.00010036,1.31e-05,0.0,0 STARLINK-5466,1 54765U 22175H   23042.22654364  .00001310  00000-0  10036-3 0  9995,2 54765  53.2176  43.1576 0001603 115.8608 244.2549 15.08841134 10464,6917.877,95.437,540.851,538.633,0.0
54765.0,STARLINK-5466,PAYLOAD,2023-02-11 16:33:55,15.08843193,0.00013,53.2182,41.0804,90.1755,269.9386,0.00014852,2.077e-05,0.0,0 STARLINK-5466,1 54765U 22175H   23042.69022130  .00002077  00000-0  14852-3 0  9997,2 54765  53.2182  41.0804 0001300  90.1755 269.9386 15.08843193  8382,6917.871,95.437,540.635,538.836,0.0
54765.0,STARLINK-5466,PAYLOAD,2023-02-12 08:27:46,15.0884304,0.0001202,53.2178,38.1037,98.3509,261.7619,5.8653e-05,6.46e-06,0.0,0 STARLINK-5466,1 54765U 22175H   23043.35262613  .00000646  00000-0  58653-4 0  9991,2 54765  53.2178  38.1037 0001202  98.3509 261.7619 15.08843040  8481,6917.871,95.437,540.568,538.905,0.0
54765.0,STARLINK-5466,PAYLOAD,2023-02-12 22:46:16,15.08836554,0.0001312,53.218,35.4277,83.1283,276.9859,-5.074e-05,-1.095e-05,0.0,0 STARLINK-5466,1 54765U 22175H   23043.94879672 -.00001095  00000-0 -50740-4 0  9995,2 54765  53.2180  35.4277 0001312  83.1283 276.9859 15.08836554  8579,6917.891,95.438,540.664,538.848,0.0
54765.0,STARLINK-5466,PAYLOAD,2023-02-13 00:21:39,15.0883874,0.0001214,53.2178,35.1308,92.5325,267.5807,-7.1707e-05,-1.429e-05,0.0,0 STARLINK-5466,1 54765U 22175H   23044.01503554 -.00001429  00000-0 -71707-4 0  9994,2 54765  53.2178  35.1308 0001214  92.5325 267.5807 15.08838740 10739,6917.884,95.438,540.589,538.909,0.0
54765.0,STARLINK-5466,PAYLOAD,2023-02-13 16:15:29,15.08848252,0.0001269,53.2182,32.1575,90.3679,269.7458,1.1883e-06,-2.69e-06,0.0,0 STARLINK-5466,1 54765U 22175H   23044.67742714 -.00000269  00000-0  11883-5 0  9999,2 54765  53.2182  32.1575 0001269  90.3679 269.7458 15.08848252  8681,6917.855,95.437,540.598,538.842,0.0
